start=new Date('2022-11-12T00:00:00.000Z').valueOf();
sats=[{"ARG_OF_PERICENTER":"46.1613","OBJECT_ID":"2021-021U","OBJECT_TYPE":"PAYLOAD","APOAPSIS":"548.721","SITE":"AFETR","EPOCH":"2022-11-11T17:48:47.928960","SEMIMAJOR_AXIS":"6925.363","MEAN_MOTION_DDOT":"0.0000000000000","CLASSIFICATION_TYPE":"U","REF_FRAME":"TEME","TLE_LINE2":"2 47878  53.0548 321.2475 0002156  46.1613 313.9554 15.06395336 93014","REV_AT_EPOCH":"9301","MEAN_MOTION_DOT":"0.00001883","LAUNCH_DATE":"2021-03-14","ECCENTRICITY":"0.00021560","RA_OF_ASC_NODE":"321.2475","RCS_SIZE":"LARGE","TLE_LINE1":"1 47878U 21021U   22315.74222140  .00001883  00000-0  14529-3 0  9999","MEAN_ELEMENT_THEORY":"SGP4","OBJECT_NAME":"STARLINK-2335","MEAN_ANOMALY":"313.9554","PERIOD":"95.592","ELEMENT_SET_NO":"999","EPHEMERIS_TYPE":"0","CENTER_NAME":"EARTH","NORAD_CAT_ID":"47878","GP_ID":"217490509","INCLINATION":"53.0548","DECAY_DATE":null,"COUNTRY_CODE":"US","PERIAPSIS":"545.735","MEAN_MOTION":"15.06395336","TIME_SYSTEM":"UTC","BSTAR":"0.00014529000000","FILE":"3651775"},{"MEAN_MOTION_DOT":"-0.00000587","LAUNCH_DATE":"2021-03-14","REV_AT_EPOCH":"9312","TLE_LINE2":"2 47879  53.0554 338.0508 0001713  56.2872 303.8280 15.06397683 93125","CLASSIFICATION_TYPE":"U","REF_FRAME":"TEME","EPOCH":"2022-11-11T08:10:54.997248","MEAN_MOTION_DDOT":"0.0000000000000","SEMIMAJOR_AXIS":"6925.356","APOAPSIS":"548.407","SITE":"AFETR","OBJECT_TYPE":"PAYLOAD","ARG_OF_PERICENTER":"56.2872","OBJECT_ID":"2021-021V","BSTAR":"-0.00002052600000","FILE":"3651496","PERIAPSIS":"546.034","MEAN_MOTION":"15.06397683","TIME_SYSTEM":"UTC","INCLINATION":"53.0554","DECAY_DATE":null,"COUNTRY_CODE":"US","GP_ID":"217432944","NORAD_CAT_ID":"47879","EPHEMERIS_TYPE":"0","CENTER_NAME":"EARTH","PERIOD":"95.592","MEAN_ANOMALY":"303.8280","ELEMENT_SET_NO":"999","MEAN_ELEMENT_THEORY":"SGP4","TLE_LINE1":"1 47879U 21021V   22315.34091432 -.00000587  00000-0 -20526-4 0  9991","OBJECT_NAME":"STARLINK-2336","RA_OF_ASC_NODE":"338.0508","ECCENTRICITY":"0.00017130","RCS_SIZE":"LARGE"},{"RCS_SIZE":"LARGE","RA_OF_ASC_NODE":"330.7899","ECCENTRICITY":"0.00021570","OBJECT_NAME":"STARLINK-2337","MEAN_ELEMENT_THEORY":"SGP4","TLE_LINE1":"1 47880U 21021W   22315.84450706  .00007718  00000-0  53645-3 0  9999","ELEMENT_SET_NO":"999","MEAN_ANOMALY":"308.7180","PERIOD":"95.592","CENTER_NAME":"EARTH","EPHEMERIS_TYPE":"0","NORAD_CAT_ID":"47880","GP_ID":"217491983","COUNTRY_CODE":"US","INCLINATION":"53.0545","DECAY_DATE":null,"PERIAPSIS":"545.720","MEAN_MOTION":"15.06399882","TIME_SYSTEM":"UTC","BSTAR":"0.00053645000000","FILE":"3651775","ARG_OF_PERICENTER":"51.4002","OBJECT_ID":"2021-021W","OBJECT_TYPE":"PAYLOAD","SITE":"AFETR","APOAPSIS":"548.708","SEMIMAJOR_AXIS":"6925.349","MEAN_MOTION_DDOT":"0.0000000000000","EPOCH":"2022-11-11T20:16:05.409984","REF_FRAME":"TEME","CLASSIFICATION_TYPE":"U","TLE_LINE2":"2 47880  53.0545 330.7899 0002157  51.4002 308.7180 15.06399882 93096","REV_AT_EPOCH":"9309","LAUNCH_DATE":"2021-03-14","MEAN_MOTION_DOT":"0.00007718"},{"FILE":"3651775","BSTAR":"0.00098988000000","TIME_SYSTEM":"UTC","PERIAPSIS":"545.945","MEAN_MOTION":"15.06402188","COUNTRY_CODE":"US","INCLINATION":"53.0539","DECAY_DATE":null,"GP_ID":"217490763","NORAD_CAT_ID":"47881","EPHEMERIS_TYPE":"0","CENTER_NAME":"EARTH","ELEMENT_SET_NO":"999","PERIOD":"95.592","MEAN_ANOMALY":"304.1077","OBJECT_NAME":"STARLINK-2339","TLE_LINE1":"1 47881U 21021X   22315.73762077  .00014494  00000-0  98988-3 0  9993","MEAN_ELEMENT_THEORY":"SGP4","RCS_SIZE":"LARGE","RA_OF_ASC_NODE":"331.2550","ECCENTRICITY":"0.00018220","LAUNCH_DATE":"2021-03-14","MEAN_MOTION_DOT":"0.00014494","REV_AT_EPOCH":"9304","TLE_LINE2":"2 47881  53.0539 331.2550 0001822  56.0084 304.1077 15.06402188 93043","REF_FRAME":"TEME","CLASSIFICATION_TYPE":"U","MEAN_MOTION_DDOT":"0.0000000000000","SEMIMAJOR_AXIS":"6925.342","EPOCH":"2022-11-11T17:42:10.434528","SITE":"AFETR","APOAPSIS":"548.469","OBJECT_TYPE":"PAYLOAD","ARG_OF_PERICENTER":"56.0084","OBJECT_ID":"2021-021X"},{"CLASSIFICATION_TYPE":"U","REF_FRAME":"TEME","EPOCH":"2022-11-11T17:06:20.206368","MEAN_MOTION_DDOT":"0.0000000000000","SEMIMAJOR_AXIS":"6925.308","APOAPSIS":"548.427","SITE":"AFETR","OBJECT_TYPE":"PAYLOAD","OBJECT_ID":"2021-021Y","ARG_OF_PERICENTER":"52.5513","MEAN_MOTION_DOT":"0.00009592","LAUNCH_DATE":"2021-03-14","REV_AT_EPOCH":"9338","TLE_LINE2":"2 47882  53.0539 321.3840 0001811  52.5513 307.5641 15.06413156 93380","CENTER_NAME":"EARTH","EPHEMERIS_TYPE":"0","PERIOD":"95.591","MEAN_ANOMALY":"307.5641","ELEMENT_SET_NO":"999","MEAN_ELEMENT_THEORY":"SGP4","TLE_LINE1":"1 47882U 21021Y   22315.71273387  .00009592  00000-0  66172-3 0  9996","OBJECT_NAME":"STARLINK-2340","RA_OF_ASC_NODE":"321.3840","ECCENTRICITY":"0.00018110","RCS_SIZE":"LARGE","FILE":"3651775","BSTAR":"0.00066172000000","TIME_SYSTEM":"UTC","PERIAPSIS":"545.919","MEAN_MOTION":"15.06413156","DECAY_DATE":null,"INCLINATION":"53.0539","COUNTRY_CODE":"US","GP_ID":"217491009","NORAD_CAT_ID":"47882"},{"ELEMENT_SET_NO":"999","PERIOD":"95.593","MEAN_ANOMALY":"311.6593","CENTER_NAME":"EARTH","EPHEMERIS_TYPE":"0","RCS_SIZE":"LARGE","RA_OF_ASC_NODE":"326.2075","ECCENTRICITY":"0.00017240","OBJECT_NAME":"STARLINK-2342","TLE_LINE1":"1 47883U 21021Z   22315.75097885  .00000669  00000-0  63829-4 0  9991","MEAN_ELEMENT_THEORY":"SGP4","MEAN_MOTION":"15.06386829","PERIAPSIS":"546.060","TIME_SYSTEM":"UTC","BSTAR":"0.00006382900000","FILE":"3651775","GP_ID":"217491765","NORAD_CAT_ID":"47883","COUNTRY_CODE":"US","DECAY_DATE":null,"INCLINATION":"53.0545","MEAN_MOTION_DDOT":"0.0000000000000","SEMIMAJOR_AXIS":"6925.389","EPOCH":"2022-11-11T18:01:24.572640","REF_FRAME":"TEME","CLASSIFICATION_TYPE":"U","OBJECT_TYPE":"PAYLOAD","ARG_OF_PERICENTER":"48.4544","OBJECT_ID":"2021-021Z","SITE":"AFETR","APOAPSIS":"548.448","LAUNCH_DATE":"2021-03-14","MEAN_MOTION_DOT":"0.00000669","TLE_LINE2":"2 47883  53.0545 326.2075 0001724  48.4544 311.6593 15.06386829 93325","REV_AT_EPOCH":"9332"},{"CLASSIFICATION_TYPE":"U","REF_FRAME":"TEME","EPOCH":"2022-11-11T12:50:16.087488","MEAN_MOTION_DDOT":"0.0000000000000","SEMIMAJOR_AXIS":"6925.339","APOAPSIS":"548.355","SITE":"AFETR","OBJECT_TYPE":"PAYLOAD","ARG_OF_PERICENTER":"51.1870","OBJECT_ID":"2021-021AA","MEAN_MOTION_DOT":"0.00016036","LAUNCH_DATE":"2021-03-14","REV_AT_EPOCH":"9304","TLE_LINE2":"2 47884  53.0535 332.1846 0001661  51.1870 308.9267 15.06403008 93045","CENTER_NAME":"EARTH","EPHEMERIS_TYPE":"0","PERIOD":"95.592","MEAN_ANOMALY":"308.9267","ELEMENT_SET_NO":"999","TLE_LINE1":"1 47884U 21021AA  22315.53490842  .00016036  00000-0  10929-2 0  9994","MEAN_ELEMENT_THEORY":"SGP4","OBJECT_NAME":"STARLINK-2343","ECCENTRICITY":"0.00016610","RA_OF_ASC_NODE":"332.1846","RCS_SIZE":"LARGE","BSTAR":"0.00109290000000","FILE":"3651775","TIME_SYSTEM":"UTC","PERIAPSIS":"546.054","MEAN_MOTION":"15.06403008","INCLINATION":"53.0535","DECAY_DATE":null,"COUNTRY_CODE":"US","GP_ID":"217491484","NORAD_CAT_ID":"47884"},{"PERIAPSIS":"545.954","TIME_SYSTEM":"UTC","MEAN_MOTION":"15.06437169","FILE":"3651775","BSTAR":"0.00170200000000","GP_ID":"217490264","NORAD_CAT_ID":"47885","INCLINATION":"53.0542","DECAY_DATE":null,"COUNTRY_CODE":"US","PERIOD":"95.590","MEAN_ANOMALY":"300.9821","ELEMENT_SET_NO":"999","CENTER_NAME":"EARTH","EPHEMERIS_TYPE":"0","RA_OF_ASC_NODE":"336.0154","ECCENTRICITY":"0.00016550","RCS_SIZE":"LARGE","TLE_LINE1":"1 47885U 21021AB  22315.79429345  .00025186  00000-0  17020-2 0  9998","MEAN_ELEMENT_THEORY":"SGP4","OBJECT_NAME":"STARLINK-2344","MEAN_MOTION_DOT":"0.00025186","LAUNCH_DATE":"2021-03-14","TLE_LINE2":"2 47885  53.0542 336.0154 0001655  59.1331 300.9821 15.06437169 93179","REV_AT_EPOCH":"9317","EPOCH":"2022-11-11T19:03:46.954080","MEAN_MOTION_DDOT":"0.0000000000000","SEMIMAJOR_AXIS":"6925.235","CLASSIFICATION_TYPE":"U","REF_FRAME":"TEME","OBJECT_TYPE":"PAYLOAD","OBJECT_ID":"2021-021AB","ARG_OF_PERICENTER":"59.1331","APOAPSIS":"548.246","SITE":"AFETR"},{"GP_ID":"217432695","NORAD_CAT_ID":"47886","DECAY_DATE":null,"INCLINATION":"53.0544","COUNTRY_CODE":"US","MEAN_MOTION":"15.07638231","PERIAPSIS":"541.221","TIME_SYSTEM":"UTC","BSTAR":"0.00176010000000","FILE":"3651496","ECCENTRICITY":"0.00031780","RA_OF_ASC_NODE":"327.4454","RCS_SIZE":"LARGE","MEAN_ELEMENT_THEORY":"SGP4","TLE_LINE1":"1 47886U 21021AC  22315.45209302  .00026932  00000-0  17601-2 0  9996","OBJECT_NAME":"STARLINK-2345","PERIOD":"95.514","MEAN_ANOMALY":"285.7481","ELEMENT_SET_NO":"999","EPHEMERIS_TYPE":"0","CENTER_NAME":"EARTH","TLE_LINE2":"2 47886  53.0544 327.4454 0003178  74.3859 285.7481 15.07638231 93115","REV_AT_EPOCH":"9311","MEAN_MOTION_DOT":"0.00026932","LAUNCH_DATE":"2021-03-14","OBJECT_TYPE":"PAYLOAD","OBJECT_ID":"2021-021AC","ARG_OF_PERICENTER":"74.3859","APOAPSIS":"545.621","SITE":"AFETR","EPOCH":"2022-11-11T10:51:00.836928","MEAN_MOTION_DDOT":"0.0000000000000","SEMIMAJOR_AXIS":"6921.556","CLASSIFICATION_TYPE":"U","REF_FRAME":"TEME"},{"OBJECT_NAME":"STARLINK-2346","TLE_LINE1":"1 47887U 21021AD  22315.75236023 -.00000643  00000-0 -24265-4 0  9999","MEAN_ELEMENT_THEORY":"SGP4","RCS_SIZE":"LARGE","RA_OF_ASC_NODE":"331.1917","ECCENTRICITY":"0.00015550","CENTER_NAME":"EARTH","EPHEMERIS_TYPE":"0","ELEMENT_SET_NO":"999","PERIOD":"95.592","MEAN_ANOMALY":"296.7690","COUNTRY_CODE":"US","DECAY_DATE":null,"INCLINATION":"53.0577","GP_ID":"217491266","NORAD_CAT_ID":"47887","FILE":"3651775","BSTAR":"-0.00002426500000","PERIAPSIS":"546.111","MEAN_MOTION":"15.06408502","TIME_SYSTEM":"UTC","SITE":"AFETR","APOAPSIS":"548.264","OBJECT_TYPE":"PAYLOAD","OBJECT_ID":"2021-021AD","ARG_OF_PERICENTER":"63.3458","REF_FRAME":"TEME","CLASSIFICATION_TYPE":"U","MEAN_MOTION_DDOT":"0.0000000000000","SEMIMAJOR_AXIS":"6925.323","EPOCH":"2022-11-11T18:03:23.923872","REV_AT_EPOCH":"9308","TLE_LINE2":"2 47887  53.0577 331.1917 0001555  63.3458 296.7690 15.06408502 93083","LAUNCH_DATE":"2021-03-14","MEAN_MOTION_DOT":"-0.00000643"}];
